{
  "norad_id": 62743,
  "name": "STARLINK-32800",
  "history": [
    {
      "epoch": "2026-03-28T14:15:07.865856Z",
      "apogee_km": 483.8151431800088,
      "perigee_km": 482.2453081187814,
      "latitude_deg": -5.998186499910555e-06,
      "longitude_deg": 15.177466959403356,
      "height_km": 482.9250871791848,
      "semi_major_axis_km": 6861.167225649395,
      "eccentricity": 0.0001144,
      "inclination_deg": 43.0045,
      "raan_deg": 54.9723,
      "arg_perigee_deg": 261.3609,
      "mean_anomaly_deg": 98.7113,
      "mean_motion_rev_day": 15.27586302
    },
    {
      "epoch": "2026-03-29T04:22:31.950336Z",
      "apogee_km": 483.58583345021,
      "perigee_km": 482.33711352803493,
      "latitude_deg": 2.623967486688842e-06,
      "longitude_deg": 159.42389843436473,
      "height_km": 482.8061821883254,
      "semi_major_axis_km": 6861.098473489122,
      "eccentricity": 9.1e-05,
      "inclination_deg": 42.9994,
      "raan_deg": 51.6491,
      "arg_perigee_deg": 263.7,
      "mean_anomaly_deg": 96.3748,
      "mean_motion_rev_day": 15.27609263
    },
    {
      "epoch": "2026-03-30T03:54:52.565760Z",
      "apogee_km": 483.80383573113704,
      "perigee_km": 482.1955852861929,
      "latitude_deg": -5.356813694416489e-06,
      "longitude_deg": 159.8296780903513,
      "height_km": 482.68894502682537,
      "semi_major_axis_km": 6861.136710508665,
      "eccentricity": 0.0001172,
      "inclination_deg": 43.0001,
      "raan_deg": 46.1075,
      "arg_perigee_deg": 276.232,
      "mean_anomaly_deg": 83.8398,
      "mean_motion_rev_day": 15.27596493
    },
    {
      "epoch": "2026-03-30T05:29:01.915296Z",
      "apogee_km": 483.806089073375,
      "perigee_km": 482.16916196021975,
      "latitude_deg": -4.124371872164982e-06,
      "longitude_deg": 135.8569757076736,
      "height_km": 482.6572598585771,
      "semi_major_axis_km": 6861.124625516797,
      "eccentricity": 0.00011929,
      "inclination_deg": 43.0002,
      "raan_deg": 45.7382,
      "arg_perigee_deg": 277.5063,
      "mean_anomaly_deg": 82.5653,
      "mean_motion_rev_day": 15.27600529
    },
    {
      "epoch": "2026-03-30T13:19:49.328256Z",
      "apogee_km": 483.33575984674735,
      "perigee_km": 482.70919876309745,
      "latitude_deg": 5.664451359895475e-06,
      "longitude_deg": 15.992488071935789,
      "height_km": 482.6695474887463,
      "semi_major_axis_km": 6861.159479304922,
      "eccentricity": 4.566e-05,
      "inclination_deg": 43.0018,
      "raan_deg": 43.8935,
      "arg_perigee_deg": 294.3101,
      "mean_anomaly_deg": 65.7703,
      "mean_motion_rev_day": 15.27588889
    },
    {
      "epoch": "2026-03-31T12:52:10.609824Z",
      "apogee_km": 483.91836708076517,
      "perigee_km": 482.18317269375984,
      "latitude_deg": -5.310148898827545e-05,
      "longitude_deg": 16.396531032572437,
      "height_km": 482.8545839319568,
      "semi_major_axis_km": 6861.187769887262,
      "eccentricity": 0.00012645,
      "inclination_deg": 43.0002,
      "raan_deg": 38.353,
      "arg_perigee_deg": 268.2033,
      "mean_anomaly_deg": 91.8673,
      "mean_motion_rev_day": 15.27579441
    },
    {
      "epoch": "2026-04-01T04:33:44.455104Z",
      "apogee_km": 484.05345582451446,
      "perigee_km": 481.95669080691005,
      "latitude_deg": -4.053124081352145e-05,
      "longitude_deg": 136.66854560627908,
      "height_km": 482.74976565649206,
      "semi_major_axis_km": 6861.142073315712,
      "eccentricity": 0.0001528,
      "inclination_deg": 43.0006,
      "raan_deg": 34.6605,
      "arg_perigee_deg": 271.7594,
      "mean_anomaly_deg": 88.3082,
      "mean_motion_rev_day": 15.27594702
    },
    {
      "epoch": "2026-04-02T19:47:38.474304Z",
      "apogee_km": 483.0012305221517,
      "perigee_km": 482.81392400519235,
      "latitude_deg": 2.3353235437931864e-05,
      "longitude_deg": -102.64735220653249,
      "height_km": 482.7338963667354,
      "semi_major_axis_km": 6861.044577263671,
      "eccentricity": 1.365e-05,
      "inclination_deg": 42.9972,
      "raan_deg": 25.4308,
      "arg_perigee_deg": 123.2543,
      "mean_anomaly_deg": 236.8322,
      "mean_motion_rev_day": 15.27627263
    },
    {
      "epoch": "2026-04-03T19:19:59.235744Z",
      "apogee_km": 483.5835319303833,
      "perigee_km": 482.45555779440747,
      "latitude_deg": -3.698490241439911e-05,
      "longitude_deg": -102.23923899411234,
      "height_km": 482.88126418248027,
      "semi_major_axis_km": 6861.156544862395,
      "eccentricity": 8.22e-05,
      "inclination_deg": 43.0021,
      "raan_deg": 19.8922,
      "arg_perigee_deg": 261.3007,
      "mean_anomaly_deg": 98.7751,
      "mean_motion_rev_day": 15.27589869
    },
    {
      "epoch": "2026-04-03T19:19:59.236608Z",
      "apogee_km": 483.58325748412153,
      "perigee_km": 482.4558322406692,
      "latitude_deg": -4.009301075675326e-05,
      "longitude_deg": -102.23924591834283,
      "height_km": 482.8812226786891,
      "semi_major_axis_km": 6861.156544862395,
      "eccentricity": 8.216e-05,
      "inclination_deg": 43.0021,
      "raan_deg": 19.8922,
      "arg_perigee_deg": 261.3007,
      "mean_anomaly_deg": 98.7751,
      "mean_motion_rev_day": 15.27589869
    },
    {
      "epoch": "2026-04-05T02:43:07.711680Z",
      "apogee_km": 483.9456112895605,
      "perigee_km": 481.9402548467224,
      "latitude_deg": -2.3720576691194327e-06,
      "longitude_deg": 138.30031595279723,
      "height_km": 482.37945498971897,
      "semi_major_axis_km": 6861.079933068141,
      "eccentricity": 0.00014614,
      "inclination_deg": 43.001,
      "raan_deg": 12.506,
      "arg_perigee_deg": 289.8407,
      "mean_anomaly_deg": 70.2287,
      "mean_motion_rev_day": 15.27615455
    },
    {
      "epoch": "2026-04-06T03:49:37.747488Z",
      "apogee_km": 484.03940203122784,
      "perigee_km": 482.04101555739453,
      "latitude_deg": -5.821396222961798e-05,
      "longitude_deg": 114.73684220020964,
      "height_km": 482.77762498864905,
      "semi_major_axis_km": 6861.177208794311,
      "eccentricity": 0.00014563,
      "inclination_deg": 43.0006,
      "raan_deg": 6.5989,
      "arg_perigee_deg": 272.2604,
      "mean_anomaly_deg": 87.808,
      "mean_motion_rev_day": 15.27582968
    },
    {
      "epoch": "2026-04-07T01:47:50.407008Z",
      "apogee_km": 484.13488131819304,
      "perigee_km": 481.94479367166423,
      "latitude_deg": -9.766747541855361e-06,
      "longitude_deg": 139.11456019817336,
      "height_km": 482.63940956640903,
      "semi_major_axis_km": 6861.176837494929,
      "eccentricity": 0.0001596,
      "inclination_deg": 43.0029,
      "raan_deg": 1.4316,
      "arg_perigee_deg": 279.3349,
      "mean_anomaly_deg": 80.7322,
      "mean_motion_rev_day": 15.27583092
    },
    {
      "epoch": "2026-04-08T01:20:10.489344Z",
      "apogee_km": 483.96100625913186,
      "perigee_km": 481.97526521074633,
      "latitude_deg": -4.795825385580601e-05,
      "longitude_deg": 139.52513143222708,
      "height_km": 482.5948197725977,
      "semi_major_axis_km": 6861.105135734939,
      "eccentricity": 0.00014471,
      "inclination_deg": 43.0023,
      "raan_deg": 355.8926,
      "arg_perigee_deg": 278.7082,
      "mean_anomaly_deg": 81.3605,
      "mean_motion_rev_day": 15.27607038
    },
    {
      "epoch": "2026-04-09T00:52:31.122048Z",
      "apogee_km": 483.67659345060656,
      "perigee_km": 482.3285167508193,
      "latitude_deg": -4.257667042971844e-06,
      "longitude_deg": 139.93269037635565,
      "height_km": 482.5793583112468,
      "semi_major_axis_km": 6861.139555100713,
      "eccentricity": 9.824e-05,
      "inclination_deg": 43.0014,
      "raan_deg": 350.3528,
      "arg_perigee_deg": 287.2326,
      "mean_anomaly_deg": 72.8418,
      "mean_motion_rev_day": 15.27595543
    },
    {
      "epoch": "2026-04-09T22:50:42.666144Z",
      "apogee_km": 483.7538642733043,
      "perigee_km": 482.28969298994525,
      "latitude_deg": -1.8721964467448128e-07,
      "longitude_deg": 164.31202101625587,
      "height_km": 482.873639283958,
      "semi_major_axis_km": 6861.158778631625,
      "eccentricity": 0.0001067,
      "inclination_deg": 43.0005,
      "raan_deg": 345.1825,
      "arg_perigee_deg": 264.0882,
      "mean_anomaly_deg": 95.9848,
      "mean_motion_rev_day": 15.27589123
    },
    {
      "epoch": "2026-04-11T15:38:46.153248Z",
      "apogee_km": 484.0113356925667,
      "perigee_km": 482.00102074134884,
      "latitude_deg": 1.2485225919625552e-05,
      "longitude_deg": -98.9811348508347,
      "height_km": 483.00204874375686,
      "semi_major_axis_km": 6861.1431782169575,
      "eccentricity": 0.0001465,
      "inclination_deg": 43.001,
      "raan_deg": 335.5795,
      "arg_perigee_deg": 257.4118,
      "mean_anomaly_deg": 102.657,
      "mean_motion_rev_day": 15.27594333
    },
    {
      "epoch": "2026-04-12T23:01:54.319008Z",
      "apogee_km": 483.9834123280043,
      "perigee_km": 482.0819077684191,
      "latitude_deg": 1.7640630086133516e-06,
      "longitude_deg": 141.56296782826954,
      "height_km": 482.84763178292474,
      "semi_major_axis_km": 6861.169660048211,
      "eccentricity": 0.00013857,
      "inclination_deg": 43.002,
      "raan_deg": 328.1966,
      "arg_perigee_deg": 267.7054,
      "mean_anomaly_deg": 92.3639,
      "mean_motion_rev_day": 15.27585489
    },
    {
      "epoch": "2026-04-14T01:42:33.902208Z",
      "apogee_km": 484.01028617164684,
      "perigee_km": 482.08668420901904,
      "latitude_deg": 4.389149932035255e-06,
      "longitude_deg": 94.02352865670777,
      "height_km": 483.17324698258545,
      "semi_major_axis_km": 6861.185485190333,
      "eccentricity": 0.00014018,
      "inclination_deg": 43.0013,
      "raan_deg": 321.9177,
      "arg_perigee_deg": 248.7852,
      "mean_anomaly_deg": 111.285,
      "mean_motion_rev_day": 15.27580204
    }
  ]
}